QIANFAN-33              
1 61566U 24185Q   25214.63171361  .00000190  00000+0  12785-3 0  9991
2 61566  88.9786  93.5570 0008205  31.7525 328.4146 13.96406918 50728
QIANFAN-34              
1 61567U 24185R   25214.56774105  .00000277  00000+0  17193-3 0  9993
2 61567  88.9762  93.3023 0007311  43.3160 316.8593 14.02156946 50835
QIANFAN-35              
1 61568U 24185S   25214.59128910  .00000531  00000+0  20971-3 0  9995
2 61568  88.9786  92.4108 0007536  19.0439 341.1036 14.27657462 51328
QIANFAN-36              
1 61569U 24185T   25214.83569210  .00000108  00000+0  13734-3 0  9994
2 61569  88.9776  94.8035 0008115  68.5590 291.6429 13.55544688 50109
QIANFAN-37              
1 62238U 24232B   25214.56450060  .00000044  00000+0  49889-4 0  9993
2 62238  88.9925  54.6983 0002563  95.2820 264.8624 13.50964931 81328
QIANFAN-38              
1 62239U 24232C   25214.81150689  .00000061  00000+0  76376-4 0  9996
2 62239  88.9932  54.5799 0013400 210.1657 149.8724 13.50953470 81418
QIANFAN-39              
1 62240U 24232D   25214.85761463  .00000153  00000+0  58878-4 0  9999
2 62240  88.9930  52.4145 0017374 143.8764 216.3607 14.25229271 82605
QIANFAN-40              
1 62241U 24232E   25214.54809873  .00000053  00000+0  63320-4 0  9991
2 62241  88.9959  54.1540 0012202 219.2092 140.8176 13.50959584 81742
